[{"OBJECT_NAME":"OBJECT AL","OBJECT_ID":"2023-085AL","EPOCH":"2026-03-09T22:26:04.970400","MEAN_MOTION":15.31857284,"ECCENTRICITY":0.000802,"INCLINATION":97.4839,"RA_OF_ASC_NODE":180.0127,"ARG_OF_PERICENTER":78.7242,"MEAN_ANOMALY":281.49,"EPHEMERIS_TYPE":0,"CLASSIFICATION_TYPE":"U","NORAD_CAT_ID":57038,"ELEMENT_SET_NO":999,"REV_AT_EPOCH":15154,"BSTAR":0.0006591637,"MEAN_MOTION_DOT":0.00020246,"MEAN_MOTION_DDOT":0},{"OBJECT_NAME":"STARLINK-35252","OBJECT_ID":"2025-221AD","EPOCH":"2026-03-09T11:15:25.388640","MEAN_MOTION":15.3020143,"ECCENTRICITY":0.00013376,"INCLINATION":53.159,"RA_OF_ASC_NODE":89.7889,"ARG_OF_PERICENTER":73.5171,"MEAN_ANOMALY":286.5976,"EPHEMERIS_TYPE":0,"CLASSIFICATION_TYPE":"U","NORAD_CAT_ID":65850,"ELEMENT_SET_NO":999,"REV_AT_EPOCH":2604,"BSTAR":0.00095605845,"MEAN_MOTION_DOT":0.00028065,"MEAN_MOTION_DDOT":0}]
